TYVAK-0130              
1 48606U 21041BF  26068.48452211  .00008857  00000+0  35198-3 0  9997
2 48606  52.9967 128.6030 0008953 215.1647 144.8760 15.26049141265157
STARLINK-32809          
1 62849U 25019W   26068.09588428  .00027823  00000+0  10160-2 0  9993
2 62849  42.9999  92.0262 0000849 278.1182  81.9574 15.27604303 62164
